<?xml version="1.0" encoding="UTF-8"?>
<osm version="0.6" generator="custom_writer">
  <node id="1" lat="12.9668233" lon="77.6096251" />
  <node id="2" lat="12.9684143" lon="77.6098063" />
  <node id="3" lat="12.9677202" lon="77.6103744" />
  <node id="4" lat="12.9670651" lon="77.6108379" />
  <node id="5" lat="12.9643493" lon="77.6119999" />
  <node id="6" lat="12.9645714" lon="77.6133174" />
  <node id="7" lat="12.9667296" lon="77.6130236" />
  <node id="8" lat="12.9647273" lon="77.6124699" />
  <node id="9" lat="12.9652476" lon="77.613142" />
  <node id="10" lat="12.9649726" lon="77.6128163" />
  <node id="11" lat="12.9645711" lon="77.6129472" />
  <node id="12" lat="12.9676273" lon="77.6110549" />
  <node id="13" lat="12.9641852" lon="77.6106265" />
  <node id="14" lat="12.9645738" lon="77.6130816" />
  <node id="15" lat="12.9643084" lon="77.6131466" />
  <node id="16" lat="12.9651021" lon="77.6124074" />
  <node id="17" lat="12.965602" lon="77.6130448" />
  <node id="18" lat="12.9650689" lon="77.6099455" />
  <node id="19" lat="12.9671303" lon="77.608968" />
  <node id="20" lat="12.965037" lon="77.6099001" />
  <node id="21" lat="12.9645823" lon="77.6122843" />
  <node id="22" lat="12.9644249" lon="77.6120884" />
  <node id="23" lat="12.9642018" lon="77.6125496" />
  <node id="24" lat="12.9645117" lon="77.6125535" />
  <node id="25" lat="12.9670911" lon="77.6109679" />
  <node id="26" lat="12.967286" lon="77.611217" />
  <node id="27" lat="12.9651782" lon="77.6121144" />
  <node id="28" lat="12.9680658" lon="77.609401" />
  <node id="29" lat="12.9677218" lon="77.609172" />
  <node id="30" lat="12.9676114" lon="77.6091353" />
  <node id="31" lat="12.9678403" lon="77.609302" />
  <node id="32" lat="12.9679233" lon="77.6093515" />
  <node id="33" lat="12.9679477" lon="77.6095963" />
  <node id="34" lat="12.9675236" lon="77.6094064" />
  <node id="35" lat="12.9677658" lon="77.6092686" />
  <node id="36" lat="12.9676931" lon="77.6094703" />
  <node id="37" lat="12.965273" lon="77.6101328" />
  <node id="38" lat="12.9650211" lon="77.6105292" />
  <node id="39" lat="12.9655089" lon="77.6122091" />
  <node id="40" lat="12.9667466" lon="77.6129532" />
  <node id="41" lat="12.9642062" lon="77.6126668" />
  <node id="42" lat="12.9671397" lon="77.6112318" />
  <node id="43" lat="12.9676183" lon="77.6108558" />
  <node id="44" lat="12.9672108" lon="77.6108057" />
  <node id="45" lat="12.9672456" lon="77.6111656" />
  <way id="1">
    <nd ref="1" />
    <nd ref="19" />
    <tag k="highway" v="residential" />
    <tag k="lanes" v="2" />
    <tag k="maxspeed" v="20" />
    <tag k="name" v="Castle Street" />
    <tag k="oneway" v="True" />
    <tag k="reversed" v="False" />
    <tag k="highway" v="residential" />
  </way>
  <way id="2">
    <nd ref="2" />
    <nd ref="3" />
    <tag k="highway" v="residential" />
    <tag k="oneway" v="False" />
    <tag k="reversed" v="False" />
    <tag k="highway" v="residential" />
  </way>
  <way id="3">
    <nd ref="3" />
    <nd ref="2" />
    <tag k="highway" v="residential" />
    <tag k="oneway" v="False" />
    <tag k="reversed" v="True" />
    <tag k="highway" v="residential" />
  </way>
  <way id="4">
    <nd ref="3" />
    <nd ref="33" />
    <tag k="highway" v="residential" />
    <tag k="oneway" v="False" />
    <tag k="reversed" v="True" />
    <tag k="highway" v="residential" />
  </way>
  <way id="5">
    <nd ref="3" />
    <nd ref="43" />
    <tag k="highway" v="residential" />
    <tag k="oneway" v="False" />
    <tag k="reversed" v="False" />
    <tag k="highway" v="residential" />
  </way>
  <way id="6">
    <nd ref="4" />
    <nd ref="44" />
    <tag k="highway" v="residential" />
    <tag k="name" v="Bovie Lane" />
    <tag k="oneway" v="False" />
    <tag k="reversed" v="False" />
    <tag k="highway" v="residential" />
  </way>
  <way id="7">
    <nd ref="4" />
    <nd ref="1" />
    <tag k="highway" v="residential" />
    <tag k="lanes" v="3" />
    <tag k="maxspeed" v="30" />
    <tag k="name" v="Richmond Road" />
    <tag k="oneway" v="True" />
    <tag k="reversed" v="False" />
    <tag k="highway" v="primary" />
  </way>
  <way id="8">
    <nd ref="5" />
    <nd ref="22" />
    <tag k="highway" v="residential" />
    <tag k="name" v="1st Cross Road" />
    <tag k="oneway" v="False" />
    <tag k="reversed" v="True" />
    <tag k="highway" v="residential" />
  </way>
  <way id="9">
    <nd ref="5" />
    <nd ref="24" />
    <tag k="highway" v="residential" />
    <tag k="name" v="Anjaneya Temple Street" />
    <tag k="oneway" v="False" />
    <tag k="reversed" v="False" />
    <tag k="highway" v="residential" />
  </way>
  <way id="10">
    <nd ref="6" />
    <nd ref="14" />
    <tag k="highway" v="residential" />
    <tag k="name" v="Anjaneya Temple Street" />
    <tag k="oneway" v="False" />
    <tag k="reversed" v="True" />
    <tag k="highway" v="residential" />
  </way>
  <way id="11">
    <nd ref="6" />
    <nd ref="9" />
    <tag k="highway" v="residential" />
    <tag k="name" v="1st Main Road" />
    <tag k="oneway" v="False" />
    <tag k="reversed" v="False" />
    <tag k="highway" v="residential" />
  </way>
  <way id="12">
    <nd ref="7" />
    <nd ref="17" />
    <tag k="highway" v="residential" />
    <tag k="name" v="1st Main Road" />
    <tag k="oneway" v="False" />
    <tag k="reversed" v="True" />
    <tag k="highway" v="residential" />
  </way>
  <way id="13">
    <nd ref="7" />
    <nd ref="40" />
    <tag k="highway" v="residential" />
    <tag k="lanes" v="3" />
    <tag k="name" v="Victoria Road" />
    <tag k="oneway" v="True" />
    <tag k="reversed" v="False" />
    <tag k="highway" v="primary" />
  </way>
  <way id="14">
    <nd ref="8" />
    <nd ref="21" />
    <tag k="highway" v="residential" />
    <tag k="name" v="1st Cross Road" />
    <tag k="oneway" v="False" />
    <tag k="reversed" v="False" />
    <tag k="highway" v="residential" />
  </way>
  <way id="15">
    <nd ref="8" />
    <nd ref="10" />
    <tag k="highway" v="residential" />
    <tag k="name" v="1st Cross Road" />
    <tag k="oneway" v="False" />
    <tag k="reversed" v="True" />
    <tag k="highway" v="residential" />
  </way>
  <way id="16">
    <nd ref="8" />
    <nd ref="27" />
    <tag k="highway" v="residential" />
    <tag k="name" v="3rd Cross Road" />
    <tag k="oneway" v="False" />
    <tag k="reversed" v="True" />
    <tag k="highway" v="residential" />
  </way>
  <way id="17">
    <nd ref="9" />
    <nd ref="17" />
    <tag k="highway" v="residential" />
    <tag k="name" v="1st Main Road" />
    <tag k="oneway" v="False" />
    <tag k="reversed" v="False" />
    <tag k="highway" v="residential" />
  </way>
  <way id="18">
    <nd ref="9" />
    <nd ref="6" />
    <tag k="highway" v="residential" />
    <tag k="name" v="1st Main Road" />
    <tag k="oneway" v="False" />
    <tag k="reversed" v="True" />
    <tag k="highway" v="residential" />
  </way>
  <way id="19">
    <nd ref="9" />
    <nd ref="10" />
    <tag k="highway" v="residential" />
    <tag k="name" v="1st Cross Road" />
    <tag k="oneway" v="False" />
    <tag k="reversed" v="False" />
    <tag k="highway" v="residential" />
  </way>
  <way id="20">
    <nd ref="10" />
    <nd ref="8" />
    <tag k="highway" v="residential" />
    <tag k="name" v="1st Cross Road" />
    <tag k="oneway" v="False" />
    <tag k="reversed" v="False" />
    <tag k="highway" v="residential" />
  </way>
  <way id="21">
    <nd ref="10" />
    <nd ref="9" />
    <tag k="highway" v="residential" />
    <tag k="name" v="1st Cross Road" />
    <tag k="oneway" v="False" />
    <tag k="reversed" v="True" />
    <tag k="highway" v="residential" />
  </way>
  <way id="22">
    <nd ref="10" />
    <nd ref="11" />
    <tag k="highway" v="residential" />
    <tag k="oneway" v="False" />
    <tag k="reversed" v="False" />
    <tag k="highway" v="residential" />
  </way>
  <way id="23">
    <nd ref="11" />
    <nd ref="14" />
    <tag k="highway" v="residential" />
    <tag k="name" v="Anjaneya Temple Street" />
    <tag k="oneway" v="False" />
    <tag k="reversed" v="False" />
    <tag k="highway" v="residential" />
  </way>
  <way id="24">
    <nd ref="11" />
    <nd ref="24" />
    <tag k="highway" v="residential" />
    <tag k="name" v="Anjaneya Temple Street" />
    <tag k="oneway" v="False" />
    <tag k="reversed" v="True" />
    <tag k="highway" v="residential" />
  </way>
  <way id="25">
    <nd ref="11" />
    <nd ref="10" />
    <tag k="highway" v="residential" />
    <tag k="oneway" v="False" />
    <tag k="reversed" v="True" />
    <tag k="highway" v="residential" />
  </way>
  <way id="26">
    <nd ref="12" />
    <nd ref="45" />
    <tag k="highway" v="residential" />
    <tag k="maxspeed" v="30" />
    <tag k="name" v="Commissariat Road" />
    <tag k="oneway" v="True" />
    <tag k="reversed" v="False" />
    <tag k="highway" v="secondary" />
  </way>
  <way id="27">
    <nd ref="12" />
    <nd ref="43" />
    <tag k="highway" v="residential" />
    <tag k="oneway" v="False" />
    <tag k="reversed" v="True" />
    <tag k="highway" v="residential" />
  </way>
  <way id="28">
    <nd ref="14" />
    <nd ref="6" />
    <tag k="highway" v="residential" />
    <tag k="name" v="Anjaneya Temple Street" />
    <tag k="oneway" v="False" />
    <tag k="reversed" v="False" />
    <tag k="highway" v="residential" />
  </way>
  <way id="29">
    <nd ref="14" />
    <nd ref="11" />
    <tag k="highway" v="residential" />
    <tag k="name" v="Anjaneya Temple Street" />
    <tag k="oneway" v="False" />
    <tag k="reversed" v="True" />
    <tag k="highway" v="residential" />
  </way>
  <way id="30">
    <nd ref="14" />
    <nd ref="15" />
    <tag k="highway" v="residential" />
    <tag k="oneway" v="False" />
    <tag k="reversed" v="True" />
    <tag k="highway" v="residential" />
  </way>
  <way id="31">
    <nd ref="15" />
    <nd ref="14" />
    <tag k="highway" v="residential" />
    <tag k="oneway" v="False" />
    <tag k="reversed" v="False" />
    <tag k="highway" v="residential" />
  </way>
  <way id="32">
    <nd ref="15" />
    <nd ref="41" />
    <tag k="highway" v="residential" />
    <tag k="oneway" v="False" />
    <tag k="reversed" v="True" />
    <tag k="highway" v="residential" />
  </way>
  <way id="33">
    <nd ref="16" />
    <nd ref="17" />
    <tag k="highway" v="residential" />
    <tag k="access" v="permissive" />
    <tag k="name" v="Loyola Layout" />
    <tag k="oneway" v="False" />
    <tag k="reversed" v="False" />
    <tag k="highway" v="living_street" />
  </way>
  <way id="34">
    <nd ref="17" />
    <nd ref="9" />
    <tag k="highway" v="residential" />
    <tag k="name" v="1st Main Road" />
    <tag k="oneway" v="False" />
    <tag k="reversed" v="True" />
    <tag k="highway" v="residential" />
  </way>
  <way id="35">
    <nd ref="17" />
    <nd ref="7" />
    <tag k="highway" v="residential" />
    <tag k="name" v="1st Main Road" />
    <tag k="oneway" v="False" />
    <tag k="reversed" v="False" />
    <tag k="highway" v="residential" />
  </way>
  <way id="36">
    <nd ref="17" />
    <nd ref="16" />
    <tag k="highway" v="residential" />
    <tag k="access" v="permissive" />
    <tag k="name" v="Loyola Layout" />
    <tag k="oneway" v="False" />
    <tag k="reversed" v="True" />
    <tag k="highway" v="living_street" />
  </way>
  <way id="37">
    <nd ref="18" />
    <nd ref="37" />
    <tag k="highway" v="residential" />
    <tag k="name" v="Philomena's Hospital Road" />
    <tag k="oneway" v="True" />
    <tag k="reversed" v="False" />
    <tag k="highway" v="tertiary" />
  </way>
  <way id="38">
    <nd ref="18" />
    <nd ref="13" />
    <tag k="highway" v="residential" />
    <tag k="name" v="Mother Teresa Road" />
    <tag k="oneway" v="True" />
    <tag k="reversed" v="False" />
    <tag k="highway" v="tertiary" />
  </way>
  <way id="39">
    <nd ref="18" />
    <nd ref="20" />
    <tag k="highway" v="residential" />
    <tag k="name" v="Campbell Road" />
    <tag k="oneway" v="False" />
    <tag k="reversed" v="True" />
    <tag k="highway" v="tertiary" />
  </way>
  <way id="40">
    <nd ref="20" />
    <nd ref="18" />
    <tag k="highway" v="residential" />
    <tag k="name" v="Campbell Road" />
    <tag k="oneway" v="False" />
    <tag k="reversed" v="False" />
    <tag k="highway" v="tertiary" />
  </way>
  <way id="41">
    <nd ref="21" />
    <nd ref="22" />
    <tag k="highway" v="residential" />
    <tag k="name" v="1st Cross Road" />
    <tag k="oneway" v="False" />
    <tag k="reversed" v="False" />
    <tag k="highway" v="residential" />
  </way>
  <way id="42">
    <nd ref="21" />
    <nd ref="22" />
    <tag k="highway" v="residential" />
    <tag k="oneway" v="False" />
    <tag k="reversed" v="False;True" />
    <tag k="highway" v="residential" />
  </way>
  <way id="43">
    <nd ref="21" />
    <nd ref="8" />
    <tag k="highway" v="residential" />
    <tag k="name" v="1st Cross Road" />
    <tag k="oneway" v="False" />
    <tag k="reversed" v="True" />
    <tag k="highway" v="residential" />
  </way>
  <way id="44">
    <nd ref="22" />
    <nd ref="5" />
    <tag k="highway" v="residential" />
    <tag k="name" v="1st Cross Road" />
    <tag k="oneway" v="False" />
    <tag k="reversed" v="False" />
    <tag k="highway" v="residential" />
  </way>
  <way id="45">
    <nd ref="22" />
    <nd ref="21" />
    <tag k="highway" v="residential" />
    <tag k="name" v="1st Cross Road" />
    <tag k="oneway" v="False" />
    <tag k="reversed" v="True" />
    <tag k="highway" v="residential" />
  </way>
  <way id="46">
    <nd ref="22" />
    <nd ref="21" />
    <tag k="highway" v="residential" />
    <tag k="oneway" v="False" />
    <tag k="reversed" v="False;True" />
    <tag k="highway" v="residential" />
  </way>
  <way id="47">
    <nd ref="23" />
    <nd ref="41" />
    <tag k="highway" v="residential" />
    <tag k="oneway" v="False" />
    <tag k="reversed" v="False" />
    <tag k="highway" v="residential" />
  </way>
  <way id="48">
    <nd ref="23" />
    <nd ref="24" />
    <tag k="highway" v="residential" />
    <tag k="oneway" v="False" />
    <tag k="reversed" v="False" />
    <tag k="highway" v="living_street" />
  </way>
  <way id="49">
    <nd ref="24" />
    <nd ref="23" />
    <tag k="highway" v="residential" />
    <tag k="oneway" v="False" />
    <tag k="reversed" v="True" />
    <tag k="highway" v="living_street" />
  </way>
  <way id="50">
    <nd ref="24" />
    <nd ref="11" />
    <tag k="highway" v="residential" />
    <tag k="name" v="Anjaneya Temple Street" />
    <tag k="oneway" v="False" />
    <tag k="reversed" v="False" />
    <tag k="highway" v="residential" />
  </way>
  <way id="51">
    <nd ref="24" />
    <nd ref="5" />
    <tag k="highway" v="residential" />
    <tag k="name" v="Anjaneya Temple Street" />
    <tag k="oneway" v="False" />
    <tag k="reversed" v="True" />
    <tag k="highway" v="residential" />
  </way>
  <way id="52">
    <nd ref="25" />
    <nd ref="4" />
    <tag k="highway" v="residential" />
    <tag k="maxspeed" v="30" />
    <tag k="name" v="Richmond Road" />
    <tag k="oneway" v="True" />
    <tag k="reversed" v="False" />
    <tag k="lanes" v="3" />
    <tag k="highway" v="primary" />
  </way>
  <way id="53">
    <nd ref="26" />
    <nd ref="45" />
    <tag k="highway" v="residential" />
    <tag k="maxspeed" v="40" />
    <tag k="name" v="Richmond Road" />
    <tag k="oneway" v="True" />
    <tag k="reversed" v="False" />
    <tag k="highway" v="primary" />
  </way>
  <way id="54">
    <nd ref="27" />
    <nd ref="8" />
    <tag k="highway" v="residential" />
    <tag k="name" v="3rd Cross Road" />
    <tag k="oneway" v="False" />
    <tag k="reversed" v="False" />
    <tag k="highway" v="residential" />
  </way>
  <way id="55">
    <nd ref="27" />
    <nd ref="40" />
    <tag k="highway" v="residential" />
    <tag k="name" v="3rd Cross Road" />
    <tag k="oneway" v="False" />
    <tag k="reversed" v="True" />
    <tag k="highway" v="residential" />
  </way>
  <way id="56">
    <nd ref="27" />
    <nd ref="39" />
    <tag k="highway" v="residential" />
    <tag k="oneway" v="False" />
    <tag k="reversed" v="False" />
    <tag k="highway" v="living_street" />
  </way>
  <way id="57">
    <nd ref="28" />
    <nd ref="33" />
    <tag k="highway" v="residential" />
    <tag k="oneway" v="False" />
    <tag k="reversed" v="False" />
    <tag k="highway" v="residential" />
  </way>
  <way id="58">
    <nd ref="28" />
    <nd ref="32" />
    <tag k="highway" v="residential" />
    <tag k="oneway" v="False" />
    <tag k="reversed" v="False" />
    <tag k="highway" v="living_street" />
  </way>
  <way id="59">
    <nd ref="29" />
    <nd ref="30" />
    <tag k="highway" v="residential" />
    <tag k="oneway" v="False" />
    <tag k="reversed" v="False" />
    <tag k="highway" v="living_street" />
  </way>
  <way id="60">
    <nd ref="29" />
    <nd ref="35" />
    <tag k="highway" v="residential" />
    <tag k="oneway" v="False" />
    <tag k="reversed" v="True" />
    <tag k="highway" v="living_street" />
  </way>
  <way id="61">
    <nd ref="30" />
    <nd ref="34" />
    <tag k="highway" v="residential" />
    <tag k="name" v="Bovie Lane" />
    <tag k="oneway" v="False" />
    <tag k="reversed" v="True" />
    <tag k="highway" v="residential" />
  </way>
  <way id="62">
    <nd ref="30" />
    <nd ref="29" />
    <tag k="highway" v="residential" />
    <tag k="oneway" v="False" />
    <tag k="reversed" v="True" />
    <tag k="highway" v="living_street" />
  </way>
  <way id="63">
    <nd ref="31" />
    <nd ref="35" />
    <tag k="highway" v="residential" />
    <tag k="oneway" v="False" />
    <tag k="reversed" v="False" />
    <tag k="highway" v="living_street" />
  </way>
  <way id="64">
    <nd ref="31" />
    <nd ref="32" />
    <tag k="highway" v="residential" />
    <tag k="oneway" v="False" />
    <tag k="reversed" v="True" />
    <tag k="highway" v="living_street" />
  </way>
  <way id="65">
    <nd ref="32" />
    <nd ref="28" />
    <tag k="highway" v="residential" />
    <tag k="oneway" v="False" />
    <tag k="reversed" v="True" />
    <tag k="highway" v="living_street" />
  </way>
  <way id="66">
    <nd ref="32" />
    <nd ref="31" />
    <tag k="highway" v="residential" />
    <tag k="oneway" v="False" />
    <tag k="reversed" v="False" />
    <tag k="highway" v="living_street" />
  </way>
  <way id="67">
    <nd ref="33" />
    <nd ref="28" />
    <tag k="highway" v="residential" />
    <tag k="oneway" v="False" />
    <tag k="reversed" v="True" />
    <tag k="highway" v="residential" />
  </way>
  <way id="68">
    <nd ref="33" />
    <nd ref="3" />
    <tag k="highway" v="residential" />
    <tag k="oneway" v="False" />
    <tag k="reversed" v="False" />
    <tag k="highway" v="residential" />
  </way>
  <way id="69">
    <nd ref="33" />
    <nd ref="36" />
    <tag k="highway" v="residential" />
    <tag k="oneway" v="False" />
    <tag k="reversed" v="False" />
    <tag k="highway" v="living_street" />
  </way>
  <way id="70">
    <nd ref="34" />
    <nd ref="30" />
    <tag k="highway" v="residential" />
    <tag k="name" v="Bovie Lane" />
    <tag k="oneway" v="False" />
    <tag k="reversed" v="False" />
    <tag k="highway" v="residential" />
  </way>
  <way id="71">
    <nd ref="34" />
    <nd ref="44" />
    <tag k="highway" v="residential" />
    <tag k="name" v="Bovie Lane" />
    <tag k="oneway" v="False" />
    <tag k="reversed" v="True" />
    <tag k="highway" v="residential" />
  </way>
  <way id="72">
    <nd ref="34" />
    <nd ref="36" />
    <tag k="highway" v="residential" />
    <tag k="oneway" v="False" />
    <tag k="reversed" v="True" />
    <tag k="highway" v="living_street" />
  </way>
  <way id="73">
    <nd ref="35" />
    <nd ref="31" />
    <tag k="highway" v="residential" />
    <tag k="oneway" v="False" />
    <tag k="reversed" v="True" />
    <tag k="highway" v="living_street" />
  </way>
  <way id="74">
    <nd ref="35" />
    <nd ref="29" />
    <tag k="highway" v="residential" />
    <tag k="oneway" v="False" />
    <tag k="reversed" v="False" />
    <tag k="highway" v="living_street" />
  </way>
  <way id="75">
    <nd ref="35" />
    <nd ref="36" />
    <tag k="highway" v="residential" />
    <tag k="oneway" v="False" />
    <tag k="reversed" v="False" />
    <tag k="highway" v="living_street" />
  </way>
  <way id="76">
    <nd ref="36" />
    <nd ref="34" />
    <tag k="highway" v="residential" />
    <tag k="oneway" v="False" />
    <tag k="reversed" v="False" />
    <tag k="highway" v="living_street" />
  </way>
  <way id="77">
    <nd ref="36" />
    <nd ref="33" />
    <tag k="highway" v="residential" />
    <tag k="oneway" v="False" />
    <tag k="reversed" v="True" />
    <tag k="highway" v="living_street" />
  </way>
  <way id="78">
    <nd ref="36" />
    <nd ref="35" />
    <tag k="highway" v="residential" />
    <tag k="oneway" v="False" />
    <tag k="reversed" v="True" />
    <tag k="highway" v="living_street" />
  </way>
  <way id="79">
    <nd ref="37" />
    <nd ref="38" />
    <tag k="highway" v="residential" />
    <tag k="oneway" v="False" />
    <tag k="reversed" v="False" />
    <tag k="highway" v="residential" />
  </way>
  <way id="80">
    <nd ref="37" />
    <nd ref="42" />
    <tag k="highway" v="residential" />
    <tag k="name" v="Philomena's Hospital Road" />
    <tag k="oneway" v="True" />
    <tag k="reversed" v="False" />
    <tag k="highway" v="tertiary" />
  </way>
  <way id="81">
    <nd ref="38" />
    <nd ref="37" />
    <tag k="highway" v="residential" />
    <tag k="oneway" v="False" />
    <tag k="reversed" v="True" />
    <tag k="highway" v="residential" />
  </way>
  <way id="82">
    <nd ref="39" />
    <nd ref="27" />
    <tag k="highway" v="residential" />
    <tag k="oneway" v="False" />
    <tag k="reversed" v="True" />
    <tag k="highway" v="living_street" />
  </way>
  <way id="83">
    <nd ref="40" />
    <nd ref="27" />
    <tag k="highway" v="residential" />
    <tag k="name" v="3rd Cross Road" />
    <tag k="oneway" v="False" />
    <tag k="reversed" v="False" />
    <tag k="highway" v="residential" />
  </way>
  <way id="84">
    <nd ref="40" />
    <nd ref="42" />
    <tag k="highway" v="residential" />
    <tag k="lanes" v="3" />
    <tag k="name" v="Victoria Road" />
    <tag k="oneway" v="True" />
    <tag k="reversed" v="False" />
    <tag k="highway" v="primary" />
  </way>
  <way id="85">
    <nd ref="41" />
    <nd ref="23" />
    <tag k="highway" v="residential" />
    <tag k="oneway" v="False" />
    <tag k="reversed" v="True" />
    <tag k="highway" v="residential" />
  </way>
  <way id="86">
    <nd ref="41" />
    <nd ref="15" />
    <tag k="highway" v="residential" />
    <tag k="oneway" v="False" />
    <tag k="reversed" v="False" />
    <tag k="highway" v="residential" />
  </way>
  <way id="87">
    <nd ref="42" />
    <nd ref="26" />
    <tag k="highway" v="residential" />
    <tag k="maxspeed" v="30" />
    <tag k="name" v="Commissariat Road" />
    <tag k="oneway" v="True" />
    <tag k="reversed" v="False" />
    <tag k="highway" v="secondary" />
  </way>
  <way id="88">
    <nd ref="42" />
    <nd ref="25" />
    <tag k="highway" v="residential" />
    <tag k="maxspeed" v="30" />
    <tag k="name" v="Richmond Road" />
    <tag k="oneway" v="True" />
    <tag k="reversed" v="False" />
    <tag k="highway" v="primary" />
  </way>
  <way id="89">
    <nd ref="43" />
    <nd ref="44" />
    <tag k="highway" v="residential" />
    <tag k="oneway" v="False" />
    <tag k="reversed" v="False" />
    <tag k="highway" v="residential" />
  </way>
  <way id="90">
    <nd ref="43" />
    <nd ref="12" />
    <tag k="highway" v="residential" />
    <tag k="oneway" v="False" />
    <tag k="reversed" v="False" />
    <tag k="highway" v="residential" />
  </way>
  <way id="91">
    <nd ref="43" />
    <nd ref="3" />
    <tag k="highway" v="residential" />
    <tag k="oneway" v="False" />
    <tag k="reversed" v="True" />
    <tag k="highway" v="residential" />
  </way>
  <way id="92">
    <nd ref="44" />
    <nd ref="43" />
    <tag k="highway" v="residential" />
    <tag k="oneway" v="False" />
    <tag k="reversed" v="True" />
    <tag k="highway" v="residential" />
  </way>
  <way id="93">
    <nd ref="44" />
    <nd ref="34" />
    <tag k="highway" v="residential" />
    <tag k="name" v="Bovie Lane" />
    <tag k="oneway" v="False" />
    <tag k="reversed" v="False" />
    <tag k="highway" v="residential" />
  </way>
  <way id="94">
    <nd ref="44" />
    <nd ref="4" />
    <tag k="highway" v="residential" />
    <tag k="name" v="Bovie Lane" />
    <tag k="oneway" v="False" />
    <tag k="reversed" v="True" />
    <tag k="highway" v="residential" />
  </way>
  <way id="95">
    <nd ref="45" />
    <nd ref="25" />
    <tag k="highway" v="residential" />
    <tag k="maxspeed" v="40" />
    <tag k="name" v="Richmond Road" />
    <tag k="oneway" v="True" />
    <tag k="reversed" v="False" />
    <tag k="highway" v="primary" />
  </way>
</osm>
